[
    {
        "CCSDS_OMM_VERS": "3.0",
        "COMMENT": "GENERATED VIA SPACE-TRACK.ORG API",
        "CREATION_DATE": "2025-04-14T03:05:54",
        "ORIGINATOR": "18 SPCS",
        "OBJECT_NAME": "GALILEO 32 (137)",
        "OBJECT_ID": "2024-167A",
        "CENTER_NAME": "EARTH",
        "REF_FRAME": "TEME",
        "TIME_SYSTEM": "UTC",
        "MEAN_ELEMENT_THEORY": "SGP4",
        "EPOCH": "2025-04-13T07:20:38.469120",
        "MEAN_MOTION": "1.70474416",
        "ECCENTRICITY": "0.00031280",
        "INCLINATION": "55.3282",
        "RA_OF_ASC_NODE": "233.1066",
        "ARG_OF_PERICENTER": "199.6014",
        "MEAN_ANOMALY": "159.7210",
        "EPHEMERIS_TYPE": "0",
        "CLASSIFICATION_TYPE": "U",
        "NORAD_CAT_ID": "61182",
        "ELEMENT_SET_NO": "999",
        "REV_AT_EPOCH": "354",
        "BSTAR": "0.00000000000000",
        "MEAN_MOTION_DOT": "-0.00000015",
        "MEAN_MOTION_DDOT": "0.0000000000000",
        "SEMIMAJOR_AXIS": "29600.272",
        "PERIOD": "844.702",
        "APOAPSIS": "23231.396",
        "PERIAPSIS": "23212.878",
        "OBJECT_TYPE": "PAYLOAD",
        "RCS_SIZE": "LARGE",
        "COUNTRY_CODE": "ESA",
        "LAUNCH_DATE": "2024-09-17",
        "SITE": "AFETR",
        "DECAY_DATE": null,
        "FILE": "4701263",
        "GP_ID": "285549560",
        "TLE_LINE0": "0 GALILEO 32 (137)",
        "TLE_LINE1": "1 61182U 24167A   25103.30600080 -.00000015  00000-0  00000-0 0  9993",
        "TLE_LINE2": "2 61182  55.3282 233.1066 0003128 199.6014 159.7210  1.70474416  3541"
    }
]